[
  {
    "OBJECT_NAME": "STARLINK-4709",
    "OBJECT_ID": "22111F",
    "EPOCH": "2025-11-11T01:53:18.418560",
    "MEAN_MOTION": 15.08841665,
    "ECCENTRICITY": 0.0001217,
    "INCLINATION": 53.2161,
    "RA_OF_ASC_NODE": 91.3106,
    "ARG_OF_PERICENTER": 88.4589,
    "MEAN_ANOMALY": 271.6543,
    "EPHEMERIS_TYPE": 0,
    "CLASSIFICATION_TYPE": "U",
    "NORAD_CAT_ID": 53778,
    "ELEMENT_SET_NO": 999,
    "REV_AT_EPOCH": 17572,
    "BSTAR": 5.5869e-05,
    "MEAN_MOTION_DOT": 6.01e-06,
    "MEAN_MOTION_DDOT": 0.0,
    "TLE_LINE1": "1 53778U 22111F   25315.07868540  .00000601  00000+0  55869-4 0  9994",
    "TLE_LINE2": "2 53778  53.2161  91.3106 0001217  88.4589 271.6543 15.08841665175727",
    "COMMENT": "Grouped by shell and plane from TLE"
  },
  {
    "OBJECT_NAME": "STARLINK-4800",
    "OBJECT_ID": "22114AN",
    "EPOCH": "2025-11-11T02:05:58.710048",
    "MEAN_MOTION": 15.08841539,
    "ECCENTRICITY": 0.0001304,
    "INCLINATION": 53.2147,
    "RA_OF_ASC_NODE": 96.7795,
    "ARG_OF_PERICENTER": 86.5769,
    "MEAN_ANOMALY": 273.5373,
    "EPHEMERIS_TYPE": 0,
    "CLASSIFICATION_TYPE": "U",
    "NORAD_CAT_ID": 53854,
    "ELEMENT_SET_NO": 999,
    "REV_AT_EPOCH": 17520,
    "BSTAR": 2.8569e-05,
    "MEAN_MOTION_DOT": 1.67e-06,
    "MEAN_MOTION_DDOT": 0.0,
    "TLE_LINE1": "1 53854U 22114AN  25315.08748507  .00000167  00000+0  28569-4 0  9997",
    "TLE_LINE2": "2 53854  53.2147  96.7795 0001304  86.5769 273.5373 15.08841539175200",
    "COMMENT": "Grouped by shell and plane from TLE"
  },
  {
    "OBJECT_NAME": "STARLINK-4795",
    "OBJECT_ID": "22114AQ",
    "EPOCH": "2025-11-10T09:50:53.010528",
    "MEAN_MOTION": 15.08856161,
    "ECCENTRICITY": 0.0001703,
    "INCLINATION": 53.2163,
    "RA_OF_ASC_NODE": 99.6653,
    "ARG_OF_PERICENTER": 88.4195,
    "MEAN_ANOMALY": 271.6992,
    "EPHEMERIS_TYPE": 0,
    "CLASSIFICATION_TYPE": "U",
    "NORAD_CAT_ID": 53856,
    "ELEMENT_SET_NO": 999,
    "REV_AT_EPOCH": 17510,
    "BSTAR": 0.00019602,
    "MEAN_MOTION_DOT": 2.834e-05,
    "MEAN_MOTION_DDOT": 0.0,
    "TLE_LINE1": "1 53856U 22114AQ  25314.41033577  .00002834  00000+0  19602-3 0  9999",
    "TLE_LINE2": "2 53856  53.2163  99.6653 0001703  88.4195 271.6992 15.08856161175104",
    "COMMENT": "Grouped by shell and plane from TLE"
  },
  {
    "OBJECT_NAME": "STARLINK-4798",
    "OBJECT_ID": "22114AS",
    "EPOCH": "2025-11-10T16:28:21.623232",
    "MEAN_MOTION": 15.08836184,
    "ECCENTRICITY": 0.000136,
    "INCLINATION": 53.2157,
    "RA_OF_ASC_NODE": 98.5407,
    "ARG_OF_PERICENTER": 89.8852,
    "MEAN_ANOMALY": 270.2296,
    "EPHEMERIS_TYPE": 0,
    "CLASSIFICATION_TYPE": "U",
    "NORAD_CAT_ID": 53858,
    "ELEMENT_SET_NO": 999,
    "REV_AT_EPOCH": 17514,
    "BSTAR": 0.00021669,
    "MEAN_MOTION_DOT": 3.162e-05,
    "MEAN_MOTION_DDOT": 0.0,
    "TLE_LINE1": "1 53858U 22114AS  25314.68636138  .00003162  00000+0  21669-3 0  9993",
    "TLE_LINE2": "2 53858  53.2157  98.5407 0001360  89.8852 270.2296 15.08836184175147",
    "COMMENT": "Grouped by shell and plane from TLE"
  },
  {
    "OBJECT_NAME": "STARLINK-4799",
    "OBJECT_ID": "22114AU",
    "EPOCH": "2025-11-10T16:17:44.327328",
    "MEAN_MOTION": 15.08850823,
    "ECCENTRICITY": 0.0001402,
    "INCLINATION": 53.2164,
    "RA_OF_ASC_NODE": 98.4941,
    "ARG_OF_PERICENTER": 91.6383,
    "MEAN_ANOMALY": 268.4769,
    "EPHEMERIS_TYPE": 0,
    "CLASSIFICATION_TYPE": "U",
    "NORAD_CAT_ID": 53860,
    "ELEMENT_SET_NO": 999,
    "REV_AT_EPOCH": 17490,
    "BSTAR": 7.9333e-06,
    "MEAN_MOTION_DOT": -1.62e-06,
    "MEAN_MOTION_DDOT": 0.0,
    "TLE_LINE1": "1 53860U 22114AU  25314.67898527 -.00000162  00000+0  79333-5 0  9998",
    "TLE_LINE2": "2 53860  53.2164  98.4941 0001402  91.6383 268.4769 15.08850823174900",
    "COMMENT": "Grouped by shell and plane from TLE"
  },
  {
    "OBJECT_NAME": "STARLINK-4781",
    "OBJECT_ID": "22114AV",
    "EPOCH": "2025-11-10T16:23:03.396480",
    "MEAN_MOTION": 15.08846964,
    "ECCENTRICITY": 0.000144,
    "INCLINATION": 53.2157,
    "RA_OF_ASC_NODE": 98.522,
    "ARG_OF_PERICENTER": 88.5914,
    "MEAN_ANOMALY": 271.5243,
    "EPHEMERIS_TYPE": 0,
    "CLASSIFICATION_TYPE": "U",
    "NORAD_CAT_ID": 53861,
    "ELEMENT_SET_NO": 999,
    "REV_AT_EPOCH": 17514,
    "BSTAR": 6.2832e-05,
    "MEAN_MOTION_DOT": 7.12e-06,
    "MEAN_MOTION_DDOT": 0.0,
    "TLE_LINE1": "1 53861U 22114AV  25314.68267820  .00000712  00000+0  62832-4 0  9991",
    "TLE_LINE2": "2 53861  53.2157  98.5220 0001440  88.5914 271.5243 15.08846964175141",
    "COMMENT": "Grouped by shell and plane from TLE"
  },
  {
    "OBJECT_NAME": "STARLINK-4788",
    "OBJECT_ID": "22114AX",
    "EPOCH": "2025-11-11T03:14:49.927776",
    "MEAN_MOTION": 15.08845966,
    "ECCENTRICITY": 0.0001514,
    "INCLINATION": 53.2148,
    "RA_OF_ASC_NODE": 96.3701,
    "ARG_OF_PERICENTER": 89.0593,
    "MEAN_ANOMALY": 271.0572,
    "EPHEMERIS_TYPE": 0,
    "CLASSIFICATION_TYPE": "U",
    "NORAD_CAT_ID": 53863,
    "ELEMENT_SET_NO": 999,
    "REV_AT_EPOCH": 17521,
    "BSTAR": 0.0,
    "MEAN_MOTION_DOT": -3.88e-06,
    "MEAN_MOTION_DDOT": 0.0,
    "TLE_LINE1": "1 53863U 22114AX  25315.13530009 -.00000388  00000+0 -62515-5 0  9996",
    "TLE_LINE2": "2 53863  53.2148  96.3701 0001514  89.0593 271.0572 15.08845966175213",
    "COMMENT": "Grouped by shell and plane from TLE"
  },
  {
    "OBJECT_NAME": "STARLINK-4779",
    "OBJECT_ID": "22114AY",
    "EPOCH": "2025-11-11T02:11:09.532320",
    "MEAN_MOTION": 15.08850753,
    "ECCENTRICITY": 0.0001092,
    "INCLINATION": 53.2146,
    "RA_OF_ASC_NODE": 96.0959,
    "ARG_OF_PERICENTER": 75.1203,
    "MEAN_ANOMALY": 284.991,
    "EPHEMERIS_TYPE": 0,
    "CLASSIFICATION_TYPE": "U",
    "NORAD_CAT_ID": 53864,
    "ELEMENT_SET_NO": 999,
    "REV_AT_EPOCH": 17521,
    "BSTAR": 4.8578e-05,
    "MEAN_MOTION_DOT": 4.86e-06,
    "MEAN_MOTION_DDOT": 0.0,
    "TLE_LINE1": "1 53864U 22114AY  25315.09108255  .00000486  00000+0  48578-4 0  9995",
    "TLE_LINE2": "2 53864  53.2146  96.0959 0001092  75.1203 284.9910 15.08850753175218",
    "COMMENT": "Grouped by shell and plane from TLE"
  },
  {
    "OBJECT_NAME": "STARLINK-30089",
    "OBJECT_ID": "23056L",
    "EPOCH": "2025-11-11T02:46:18.223680",
    "MEAN_MOTION": 15.02538195,
    "ECCENTRICITY": 0.0001085,
    "INCLINATION": 43.0034,
    "RA_OF_ASC_NODE": 95.6845,
    "ARG_OF_PERICENTER": 262.6579,
    "MEAN_ANOMALY": 97.414,
    "EPHEMERIS_TYPE": 0,
    "CLASSIFICATION_TYPE": "U",
    "NORAD_CAT_ID": 56296,
    "ELEMENT_SET_NO": 999,
    "REV_AT_EPOCH": 14263,
    "BSTAR": 5.292e-05,
    "MEAN_MOTION_DOT": 5.11e-06,
    "MEAN_MOTION_DDOT": 0.0,
    "TLE_LINE1": "1 56296U 23056L   25315.11548870  .00000511  00000+0  52920-4 0  9992",
    "TLE_LINE2": "2 56296  43.0034  95.6845 0001085 262.6579  97.4140 15.02538195142632",
    "COMMENT": "Grouped by shell and plane from TLE"
  },
  {
    "OBJECT_NAME": "STARLINK-6256",
    "OBJECT_ID": "23061AD",
    "EPOCH": "2025-11-11T08:00:03.000384",
    "MEAN_MOTION": 15.20326737,
    "ECCENTRICITY": 0.000177,
    "INCLINATION": 43.0023,
    "RA_OF_ASC_NODE": 93.7589,
    "ARG_OF_PERICENTER": 282.6878,
    "MEAN_ANOMALY": 321.6457,
    "EPHEMERIS_TYPE": 0,
    "CLASSIFICATION_TYPE": "U",
    "NORAD_CAT_ID": 56401,
    "ELEMENT_SET_NO": 999,
    "REV_AT_EPOCH": 570,
    "BSTAR": 0.022859,
    "MEAN_MOTION_DOT": 0.00539535,
    "MEAN_MOTION_DDOT": 0.0,
    "TLE_LINE1": "1 56401U 23061AD  25315.33336806  .00539535  00000+0  22859-1 0  9992",
    "TLE_LINE2": "2 56401  43.0023  93.7589 0001770 282.6878 321.6457 15.20326737  5703",
    "COMMENT": "Grouped by shell and plane from TLE"
  },
  {
    "OBJECT_NAME": "STARLINK-6260",
    "OBJECT_ID": "23061AU",
    "EPOCH": "2025-11-11T02:47:59.424864",
    "MEAN_MOTION": 15.02531021,
    "ECCENTRICITY": 0.0001494,
    "INCLINATION": 43.0038,
    "RA_OF_ASC_NODE": 96.143,
    "ARG_OF_PERICENTER": 271.2512,
    "MEAN_ANOMALY": 88.816,
    "EPHEMERIS_TYPE": 0,
    "CLASSIFICATION_TYPE": "U",
    "NORAD_CAT_ID": 56416,
    "ELEMENT_SET_NO": 999,
    "REV_AT_EPOCH": 13921,
    "BSTAR": 0.00012884000000000002,
    "MEAN_MOTION_DOT": 1.537e-05,
    "MEAN_MOTION_DDOT": 0.0,
    "TLE_LINE1": "1 56416U 23061AU  25315.11666001  .00001537  00000+0  12884-3 0  9992",
    "TLE_LINE2": "2 56416  43.0038  96.1430 0001494 271.2512  88.8160 15.02531021139210",
    "COMMENT": "Grouped by shell and plane from TLE"
  },
  {
    "OBJECT_NAME": "STARLINK-5356",
    "OBJECT_ID": "23061AW",
    "EPOCH": "2025-11-11T02:28:48.817920",
    "MEAN_MOTION": 15.02537884,
    "ECCENTRICITY": 0.0001229,
    "INCLINATION": 43.0018,
    "RA_OF_ASC_NODE": 96.0396,
    "ARG_OF_PERICENTER": 265.147,
    "MEAN_ANOMALY": 94.9232,
    "EPHEMERIS_TYPE": 0,
    "CLASSIFICATION_TYPE": "U",
    "NORAD_CAT_ID": 56418,
    "ELEMENT_SET_NO": 999,
    "REV_AT_EPOCH": 13921,
    "BSTAR": 5.4935e-05,
    "MEAN_MOTION_DOT": 5.39e-06,
    "MEAN_MOTION_DDOT": 0.0,
    "TLE_LINE1": "1 56418U 23061AW  25315.10334280  .00000539  00000+0  54935-4 0  9999",
    "TLE_LINE2": "2 56418  43.0018  96.0396 0001229 265.1470  94.9232 15.02537884139212",
    "COMMENT": "Grouped by shell and plane from TLE"
  },
  {
    "OBJECT_NAME": "STARLINK-6272",
    "OBJECT_ID": "23061AY",
    "EPOCH": "2025-11-11T02:24:00.939168",
    "MEAN_MOTION": 15.02538592,
    "ECCENTRICITY": 0.0001332,
    "INCLINATION": 43.0029,
    "RA_OF_ASC_NODE": 96.0143,
    "ARG_OF_PERICENTER": 266.5824,
    "MEAN_ANOMALY": 93.4866,
    "EPHEMERIS_TYPE": 0,
    "CLASSIFICATION_TYPE": "U",
    "NORAD_CAT_ID": 56420,
    "ELEMENT_SET_NO": 999,
    "REV_AT_EPOCH": 13921,
    "BSTAR": 0.00010539,
    "MEAN_MOTION_DOT": 1.22e-05,
    "MEAN_MOTION_DDOT": 0.0,
    "TLE_LINE1": "1 56420U 23061AY  25315.10001087  .00001220  00000+0  10539-3 0  9997",
    "TLE_LINE2": "2 56420  43.0029  96.0143 0001332 266.5824  93.4866 15.02538592139214",
    "COMMENT": "Grouped by shell and plane from TLE"
  }
]